STARLINK-33853          
1 63684U 25085W   25128.25002315 -.01213399  00000+0 -65843-2 0  9990
2 63684  43.0067 322.9128 0001599 263.9293 189.0757 15.81703285  2070
STARLINK-33847          
1 63685U 25085X   25128.25002315 -.01237009  00000+0 -67282-2 0  9994
2 63685  43.0068 322.9017 0001686 270.8376 186.6427 15.81704848  2078
STARLINK-33880          
1 63686U 25085Y   25128.25002315 -.01225727  00000+0 -66598-2 0  9998
2 63686  43.0067 322.9068 0001588 263.3451 191.9293 15.81703297  2185
HULIANWANG DIGUI A      
1 63687U 25086A   25127.91359156  .00000116  00000+0  18479-3 0  9996
2 63687  86.5010  89.7336 0011513 280.5159  79.4686 13.40523408  1213
HULIANWANG DIGUI B      
1 63688U 25086B   25128.20690824  .00000142  00000+0  22774-3 0  9992
2 63688  86.5039  89.6288 0008348 269.1201  90.8986 13.41298283  1236
HULIANWANG DIGUI C      
1 63689U 25086C   25127.90887866  .00000121  00000+0  19050-3 0  9993
2 63689  86.5005  89.7307 0009444 266.0066  93.9998 13.41242225  1193
HULIANWANG DIGUI D      
1 63690U 25086D   25127.90928343  .00000124  00000+0  19621-3 0  9998
2 63690  86.5045  89.7350 0008943 269.3822  90.6297 13.41181602  1193
HULIANWANG DIGUI E      
1 63691U 25086E   25127.90969471  .00000117  00000+0  18365-3 0  9992
2 63691  86.5052  89.7358 0010175 270.3099  89.6879 13.41119746  1192
HULIANWANG DIGUI F      
1 63692U 25086F   25127.91062784  .00000119  00000+0  18766-3 0  9992
2 63692  86.4990  89.7297 0008931 276.3079  83.7047 13.40980405  1195
HULIANWANG DIGUI G      
1 63693U 25086G   25127.91089328  .00000130  00000+0  20768-3 0  9994
2 63693  86.5039  89.7335 0009799 279.4658  80.5378 13.40941634  1197
HULIANWANG DIGUI H      
1 63694U 25086H   25127.91134696  .00000132  00000+0  21130-3 0  9990
2 63694  86.5000  89.7311 0010889 275.1014  84.8886 13.40876033  1192
HULIANWANG DIGUI J      
1 63695U 25086J   25127.91190048  .00000129  00000+0  20724-3 0  9998
2 63695  86.4963  89.7273 0010037 277.3794  82.6208 13.40791249  1190
HULIANWANG DIGUI K      
1 63696U 25086K   25127.91233256  .00000126  00000+0  20175-3 0  9995
2 63696  86.4992  89.7323 0011153 273.8356  86.1512 13.40710259  1193
STARLINK-33894          
1 63697U 25087A   25127.91668981 -.01045187  33011-3 -31458-2 0  9990
2 63697  53.1559 211.2635 0000759  56.0495 344.1138 15.91557816  1442
STARLINK-33922          
1 63698U 25087B   25127.91668981 -.01046594  33105-3 -31435-2 0  9993
2 63698  53.1557 211.2596 0000891  54.4884 347.4362 15.91598057  1300
STARLINK-33919          
1 63699U 25087C   25127.91668981 -.01052250  33449-3 -31510-2 0  9995
2 63699  53.1558 211.2554 0000772  55.1109 348.7979 15.91657446  1443
