[{"OBJECT_NAME":"STARLINK-33853","OBJECT_ID":"2025-085W","EPOCH":"2025-05-08T06:00:02.000160","MEAN_MOTION":15.81703285,"ECCENTRICITY":0.0001599,"INCLINATION":43.0067,"RA_OF_ASC_NODE":322.9128,"ARG_OF_PERICENTER":263.9293,"MEAN_ANOMALY":189.0757,"EPHEMERIS_TYPE":0,"CLASSIFICATION_TYPE":"U","NORAD_CAT_ID":63684,"ELEMENT_SET_NO":999,"REV_AT_EPOCH":207,"BSTAR":-0.0065843,"MEAN_MOTION_DOT":-0.01213399,"MEAN_MOTION_DDOT":0},{"OBJECT_NAME":"STARLINK-33847","OBJECT_ID":"2025-085X","EPOCH":"2025-05-08T06:00:02.000160","MEAN_MOTION":15.81704848,"ECCENTRICITY":0.0001686,"INCLINATION":43.0068,"RA_OF_ASC_NODE":322.9017,"ARG_OF_PERICENTER":270.8376,"MEAN_ANOMALY":186.6427,"EPHEMERIS_TYPE":0,"CLASSIFICATION_TYPE":"U","NORAD_CAT_ID":63685,"ELEMENT_SET_NO":999,"REV_AT_EPOCH":207,"BSTAR":-0.0067282,"MEAN_MOTION_DOT":-0.01237009,"MEAN_MOTION_DDOT":0},{"OBJECT_NAME":"STARLINK-33880","OBJECT_ID":"2025-085Y","EPOCH":"2025-05-08T06:00:02.000160","MEAN_MOTION":15.81703297,"ECCENTRICITY":0.0001588,"INCLINATION":43.0067,"RA_OF_ASC_NODE":322.9068,"ARG_OF_PERICENTER":263.3451,"MEAN_ANOMALY":191.9293,"EPHEMERIS_TYPE":0,"CLASSIFICATION_TYPE":"U","NORAD_CAT_ID":63686,"ELEMENT_SET_NO":999,"REV_AT_EPOCH":218,"BSTAR":-0.0066598,"MEAN_MOTION_DOT":-0.01225727,"MEAN_MOTION_DDOT":0},{"OBJECT_NAME":"HULIANWANG DIGUI A","OBJECT_ID":"2025-086A","EPOCH":"2025-05-07T21:55:34.310784","MEAN_MOTION":13.40523408,"ECCENTRICITY":0.0011513,"INCLINATION":86.501,"RA_OF_ASC_NODE":89.7336,"ARG_OF_PERICENTER":280.5159,"MEAN_ANOMALY":79.4686,"EPHEMERIS_TYPE":0,"CLASSIFICATION_TYPE":"U","NORAD_CAT_ID":63687,"ELEMENT_SET_NO":999,"REV_AT_EPOCH":121,"BSTAR":0.00018479,"MEAN_MOTION_DOT":1.16e-6,"MEAN_MOTION_DDOT":0},{"OBJECT_NAME":"HULIANWANG DIGUI B","OBJECT_ID":"2025-086B","EPOCH":"2025-05-08T04:57:56.871936","MEAN_MOTION":13.41298283,"ECCENTRICITY":0.0008348,"INCLINATION":86.5039,"RA_OF_ASC_NODE":89.6288,"ARG_OF_PERICENTER":269.1201,"MEAN_ANOMALY":90.8986,"EPHEMERIS_TYPE":0,"CLASSIFICATION_TYPE":"U","NORAD_CAT_ID":63688,"ELEMENT_SET_NO":999,"REV_AT_EPOCH":123,"BSTAR":0.00022774,"MEAN_MOTION_DOT":1.42e-6,"MEAN_MOTION_DDOT":0},{"OBJECT_NAME":"HULIANWANG DIGUI C","OBJECT_ID":"2025-086C","EPOCH":"2025-05-07T21:48:47.116224","MEAN_MOTION":13.41242225,"ECCENTRICITY":0.0009444,"INCLINATION":86.5005,"RA_OF_ASC_NODE":89.7307,"ARG_OF_PERICENTER":266.0066,"MEAN_ANOMALY":93.9998,"EPHEMERIS_TYPE":0,"CLASSIFICATION_TYPE":"U","NORAD_CAT_ID":63689,"ELEMENT_SET_NO":999,"REV_AT_EPOCH":119,"BSTAR":0.0001905,"MEAN_MOTION_DOT":1.21e-6,"MEAN_MOTION_DDOT":0},{"OBJECT_NAME":"HULIANWANG DIGUI D","OBJECT_ID":"2025-086D","EPOCH":"2025-05-07T21:49:22.088352","MEAN_MOTION":13.41181602,"ECCENTRICITY":0.0008943,"INCLINATION":86.5045,"RA_OF_ASC_NODE":89.735,"ARG_OF_PERICENTER":269.3822,"MEAN_ANOMALY":90.6297,"EPHEMERIS_TYPE":0,"CLASSIFICATION_TYPE":"U","NORAD_CAT_ID":63690,"ELEMENT_SET_NO":999,"REV_AT_EPOCH":119,"BSTAR":0.00019621,"MEAN_MOTION_DOT":1.24e-6,"MEAN_MOTION_DDOT":0},{"OBJECT_NAME":"HULIANWANG DIGUI E","OBJECT_ID":"2025-086E","EPOCH":"2025-05-07T21:49:57.622944","MEAN_MOTION":13.41119746,"ECCENTRICITY":0.0010175,"INCLINATION":86.5052,"RA_OF_ASC_NODE":89.7358,"ARG_OF_PERICENTER":270.3099,"MEAN_ANOMALY":89.6879,"EPHEMERIS_TYPE":0,"CLASSIFICATION_TYPE":"U","NORAD_CAT_ID":63691,"ELEMENT_SET_NO":999,"REV_AT_EPOCH":119,"BSTAR":0.00018365,"MEAN_MOTION_DOT":1.17e-6,"MEAN_MOTION_DDOT":0},{"OBJECT_NAME":"HULIANWANG DIGUI F","OBJECT_ID":"2025-086F","EPOCH":"2025-05-07T21:51:18.245376","MEAN_MOTION":13.40980405,"ECCENTRICITY":0.0008931,"INCLINATION":86.499,"RA_OF_ASC_NODE":89.7297,"ARG_OF_PERICENTER":276.3079,"MEAN_ANOMALY":83.7047,"EPHEMERIS_TYPE":0,"CLASSIFICATION_TYPE":"U","NORAD_CAT_ID":63692,"ELEMENT_SET_NO":999,"REV_AT_EPOCH":119,"BSTAR":0.00018766,"MEAN_MOTION_DOT":1.19e-6,"MEAN_MOTION_DDOT":0},{"OBJECT_NAME":"HULIANWANG DIGUI G","OBJECT_ID":"2025-086G","EPOCH":"2025-05-07T21:51:41.179392","MEAN_MOTION":13.40941634,"ECCENTRICITY":0.0009799,"INCLINATION":86.5039,"RA_OF_ASC_NODE":89.7335,"ARG_OF_PERICENTER":279.4658,"MEAN_ANOMALY":80.5378,"EPHEMERIS_TYPE":0,"CLASSIFICATION_TYPE":"U","NORAD_CAT_ID":63693,"ELEMENT_SET_NO":999,"REV_AT_EPOCH":119,"BSTAR":0.00020768,"MEAN_MOTION_DOT":1.3e-6,"MEAN_MOTION_DDOT":0},{"OBJECT_NAME":"HULIANWANG DIGUI H","OBJECT_ID":"2025-086H","EPOCH":"2025-05-07T21:52:20.377344","MEAN_MOTION":13.40876033,"ECCENTRICITY":0.0010889,"INCLINATION":86.5,"RA_OF_ASC_NODE":89.7311,"ARG_OF_PERICENTER":275.1014,"MEAN_ANOMALY":84.8886,"EPHEMERIS_TYPE":0,"CLASSIFICATION_TYPE":"U","NORAD_CAT_ID":63694,"ELEMENT_SET_NO":999,"REV_AT_EPOCH":119,"BSTAR":0.0002113,"MEAN_MOTION_DOT":1.32e-6,"MEAN_MOTION_DDOT":0},{"OBJECT_NAME":"HULIANWANG DIGUI J","OBJECT_ID":"2025-086J","EPOCH":"2025-05-07T21:53:08.201472","MEAN_MOTION":13.40791249,"ECCENTRICITY":0.0010037,"INCLINATION":86.4963,"RA_OF_ASC_NODE":89.7273,"ARG_OF_PERICENTER":277.3794,"MEAN_ANOMALY":82.6208,"EPHEMERIS_TYPE":0,"CLASSIFICATION_TYPE":"U","NORAD_CAT_ID":63695,"ELEMENT_SET_NO":999,"REV_AT_EPOCH":119,"BSTAR":0.00020724,"MEAN_MOTION_DOT":1.29e-6,"MEAN_MOTION_DDOT":0},{"OBJECT_NAME":"HULIANWANG DIGUI K","OBJECT_ID":"2025-086K","EPOCH":"2025-05-07T21:53:45.533184","MEAN_MOTION":13.40710259,"ECCENTRICITY":0.0011153,"INCLINATION":86.4992,"RA_OF_ASC_NODE":89.7323,"ARG_OF_PERICENTER":273.8356,"MEAN_ANOMALY":86.1512,"EPHEMERIS_TYPE":0,"CLASSIFICATION_TYPE":"U","NORAD_CAT_ID":63696,"ELEMENT_SET_NO":999,"REV_AT_EPOCH":119,"BSTAR":0.00020175,"MEAN_MOTION_DOT":1.26e-6,"MEAN_MOTION_DDOT":0},{"OBJECT_NAME":"STARLINK-33894","OBJECT_ID":"2025-087A","EPOCH":"2025-05-07T22:00:01.999584","MEAN_MOTION":15.91557816,"ECCENTRICITY":7.59e-5,"INCLINATION":53.1559,"RA_OF_ASC_NODE":211.2635,"ARG_OF_PERICENTER":56.0495,"MEAN_ANOMALY":344.1138,"EPHEMERIS_TYPE":0,"CLASSIFICATION_TYPE":"U","NORAD_CAT_ID":63697,"ELEMENT_SET_NO":999,"REV_AT_EPOCH":144,"BSTAR":-0.0031458,"MEAN_MOTION_DOT":-0.01045187,"MEAN_MOTION_DDOT":0.00033011},{"OBJECT_NAME":"STARLINK-33922","OBJECT_ID":"2025-087B","EPOCH":"2025-05-07T22:00:01.999584","MEAN_MOTION":15.91598057,"ECCENTRICITY":8.91e-5,"INCLINATION":53.1557,"RA_OF_ASC_NODE":211.2596,"ARG_OF_PERICENTER":54.4884,"MEAN_ANOMALY":347.4362,"EPHEMERIS_TYPE":0,"CLASSIFICATION_TYPE":"U","NORAD_CAT_ID":63698,"ELEMENT_SET_NO":999,"REV_AT_EPOCH":130,"BSTAR":-0.0031435,"MEAN_MOTION_DOT":-0.01046594,"MEAN_MOTION_DDOT":0.00033105},{"OBJECT_NAME":"STARLINK-33919","OBJECT_ID":"2025-087C","EPOCH":"2025-05-07T22:00:01.999584","MEAN_MOTION":15.91657446,"ECCENTRICITY":7.72e-5,"INCLINATION":53.1558,"RA_OF_ASC_NODE":211.2554,"ARG_OF_PERICENTER":55.1109,"MEAN_ANOMALY":348.7979,"EPHEMERIS_TYPE":0,"CLASSIFICATION_TYPE":"U","NORAD_CAT_ID":63699,"ELEMENT_SET_NO":999,"REV_AT_EPOCH":144,"BSTAR":-0.003151,"MEAN_MOTION_DOT":-0.0105225,"MEAN_MOTION_DDOT":0.00033449}]
